{"type":"FeatureCollection","features":[{"type":"Feature","id":"way/361863793","properties":{"type":"way","id":361863793,"tags":{"amenity":"bank","building":"yes","name":"Shree Unity Sahakari","nrb_class":"co-operative"},"relations":[],"meta":{}},"geometry":{"type":"Point","coordinates":[84.884859025,27.9124677]}},{"type":"Feature","id":"way/520202385","properties":{"type":"way","id":520202385,"tags":{"amenity":"bank","building":"yes","name":"IME Bank","opening_hours":"Su - fr 10:00 - 01:00"},"relations":[],"meta":{}},"geometry":{"type":"Point","coordinates":[84.883921475,27.911178500000002]}},{"type":"Feature","id":"node/5068792602","properties":{"type":"node","id":5068792602,"tags":{"amenity":"bank","atm":"no","contact:phone":"010521133","email":"ramkotsaccos@gmail.com","name":"Ramkot Saving & Credit Cooperative Ltd","opening_hours":"10:00-05:00"},"relations":[],"meta":{}},"geometry":{"type":"Point","coordinates":[84.8839039,27.9101372]}},{"type":"Feature","id":"node/5087901222","properties":{"type":"node","id":5087901222,"tags":{"amenity":"bank","atm":"yes","email":"dhading@rbb.com.np","fax":"10-520397","name":"Rastriya Banijya Bank","name:ne":"रास्ट्रिय बाडिज्य बैंक","phone":"10-520155"},"relations":[],"meta":{}},"geometry":{"type":"Point","coordinates":[84.892974,27.9114033]}},{"type":"Feature","id":"node/5087912654","properties":{"type":"node","id":5087912654,"tags":{"amenity":"bank","atm":"yes","name":"Chhimek Lagubitta Bikas Bank","name:ne":"छिमेकी लघुबित्त विकास बैंक","opening_hours":"10:00 - 16:00","phone":"010520258"},"relations":[],"meta":{}},"geometry":{"type":"Point","coordinates":[84.8920662,27.9114614]}},{"type":"Feature","id":"node/5087912881","properties":{"type":"node","id":5087912881,"tags":{"amenity":"bank","name":"Kamana Sewa Bikash Bank Ltd","name:ne":"कामना सेवा विकास बैंक"},"relations":[],"meta":{}},"geometry":{"type":"Point","coordinates":[84.8868953,27.9117414]}},{"type":"Feature","id":"node/5088111419","properties":{"type":"node","id":5088111419,"tags":{"addr:city":"Nilkantha Municipality","amenity":"bank","atm":"yes","name":"Sanima Bank Ltd","name:ne":"सानिमा बैंक लिमिटेड","operator":"Sanima Bank Limited"},"relations":[],"meta":{}},"geometry":{"type":"Point","coordinates":[84.8919099,27.9114919]}},{"type":"Feature","id":"node/5088113721","properties":{"type":"node","id":5088113721,"tags":{"amenity":"bank","atm":"yes","name":"Muktinath Bikash Bank Ltd","name:ne":"मुक्तिनाथ विकास बैंक","opening_hours":"10:00 - 17:00"},"relations":[],"meta":{}},"geometry":{"type":"Point","coordinates":[84.8908707,27.9116359]}},{"type":"Feature","id":"node/5088115614","properties":{"type":"node","id":5088115614,"tags":{"amenity":"bank","atm":"yes","name":"Muktinath Bank Limited","name:ne":"मुक्तिनाथ विकास बैंक लिमिटेड","phone":"010521127"},"relations":[],"meta":{}},"geometry":{"type":"Point","coordinates":[84.8845411,27.910909]}},{"type":"Feature","id":"node/5088122057","properties":{"type":"node","id":5088122057,"tags":{"amenity":"bank","atm":"yes","contact:email":"Sahara-Mahila@yahoo.com","contact:phone":"010-520746","name":"Sahara Women Saving and Co-operative Ltd."},"relations":[],"meta":{}},"geometry":{"type":"Point","coordinates":[84.8869607,27.9117273]}},{"type":"Feature","id":"node/5088209920","properties":{"type":"node","id":5088209920,"tags":{"amenity":"bank","atm":"yes","contact:phone":"010521069","name":"Civil Bank Ltd","name:ne":"सिबिल बैंक लिमिटेड","nrb_class":"commercial"},"relations":[],"meta":{}},"geometry":{"type":"Point","coordinates":[84.8882464,27.9114209]}},{"type":"Feature","id":"node/5103055257","properties":{"type":"node","id":5103055257,"tags":{"amenity":"bank","atm":"yes","email":"dhading@ebl.com.np","fax":"010-520443","name":"Everest Bank Limited","name:ne":"एभरेस्ट बैंक लिमिटेड","phone":"010-520631"},"relations":[],"meta":{}},"geometry":{"type":"Point","coordinates":[84.8930472,27.9111184]}},{"type":"Feature","id":"node/5103068134","properties":{"type":"node","id":5103068134,"tags":{"amenity":"bank","contact:phone":"010521102","name":"Mega Bank Ltd","name:ne":"मेघा बैंक","nrb_class":"commercial"},"relations":[],"meta":{}},"geometry":{"type":"Point","coordinates":[84.8917421,27.9113246]}},{"type":"Feature","id":"node/5103068137","properties":{"type":"node","id":5103068137,"tags":{"amenity":"bank","atm":"yes","name":"Himalayan Bank Ltd","phone":"010 - 521111","website":"http://himalayanbank.com/"},"relations":[],"meta":{}},"geometry":{"type":"Point","coordinates":[84.8918612,27.911313]}},{"type":"Feature","id":"node/5156375159","properties":{"type":"node","id":5156375159,"tags":{"amenity":"bank","atm":"yes","contact:phone":"010-521011","name":"Deprosc Laghubitta Bikash Bank Limited","name:ne":"डिप्रोक्ष लघुवित्त विकास बैंक लिमिटेड","nrb_class":"development","opening_hours":"mo-Fr 10:00-17:00","operater":"private"},"relations":[],"meta":{}},"geometry":{"type":"Point","coordinates":[84.8912669,27.9114377]}},{"type":"Feature","id":"node/5156554787","properties":{"type":"node","id":5156554787,"tags":{"amenity":"atm","brand":"Muktinath Bikas Bank Ltd","opening_hours":"24/7"},"relations":[],"meta":{}},"geometry":{"type":"Point","coordinates":[84.8908815,27.9116111]}},{"type":"Feature","id":"node/5156554788","properties":{"type":"node","id":5156554788,"tags":{"amenity":"atm","brand":"Sanima Bank Ltd","opening_hours":"24/7"},"relations":[],"meta":{}},"geometry":{"type":"Point","coordinates":[84.891919,27.9114537]}},{"type":"Feature","id":"node/5156554789","properties":{"type":"node","id":5156554789,"tags":{"amenity":"atm","brand":"Mega Bank Ltd","opening_hours":"24/7"},"relations":[],"meta":{}},"geometry":{"type":"Point","coordinates":[84.8917591,27.9113327]}},{"type":"Feature","id":"node/5156554790","properties":{"type":"node","id":5156554790,"tags":{"amenity":"atm","atm":"yes","brand":"Himalayan Bank","name:ne":"हिमालयन बैंक","opening_hours":"10:00 - 17:00"},"relations":[],"meta":{}},"geometry":{"type":"Point","coordinates":[84.8918382,27.9112786]}},{"type":"Feature","id":"node/5156554791","properties":{"type":"node","id":5156554791,"tags":{"amenity":"atm","brand":"Rastriya Banijya Bank","opening_hours":"24/7"},"relations":[],"meta":{}},"geometry":{"type":"Point","coordinates":[84.8929705,27.9113716]}},{"type":"Feature","id":"node/5164619714","properties":{"type":"node","id":5164619714,"tags":{"amenity":"bank","name":"Lamiswora Mahila Bachat Sahakari","name:ne":"लामीस्वार महिला बचत सहकारी"},"relations":[],"meta":{}},"geometry":{"type":"Point","coordinates":[84.8979302,27.9217502]}},{"type":"Feature","id":"node/5164619866","properties":{"type":"node","id":5164619866,"tags":{"amenity":"bank","atm":"yes","name":"Randevi Krishi Sahakari Satha Pra Limited"},"relations":[],"meta":{}},"geometry":{"type":"Point","coordinates":[84.8903739,27.9173839]}},{"type":"Feature","id":"node/5166693198","properties":{"type":"node","id":5166693198,"tags":{"amenity":"bank","atm":"yes","name":"Mahalaxmi Bikash Bank","name:ne":"माहालक्ष्मी बिकास बैंक","opening_hours":"Mo-Fr 10:00-17:00,"},"relations":[],"meta":{}},"geometry":{"type":"Point","coordinates":[84.8894467,27.9113233]}},{"type":"Feature","id":"node/5168683719","properties":{"type":"node","id":5168683719,"tags":{"amenity":"bank","atm":"yes","name":"Agricultural Development Bank LTD","name:ne":"कृषि विकास बैंक लिमिटेड"},"relations":[],"meta":{}},"geometry":{"type":"Point","coordinates":[84.8962095,27.9104751]}},{"type":"Feature","id":"node/5169028934","properties":{"type":"node","id":5169028934,"tags":{"amenity":"bank","name":"NilKantha Mahila Sahakari","name:ne":"निलकण्ठ सहकारी","opening_hours":"Mo-Fr 10:00-05:00,"},"relations":[],"meta":{}},"geometry":{"type":"Point","coordinates":[84.8939645,27.9114018]}},{"type":"Feature","id":"node/5170888998","properties":{"type":"node","id":5170888998,"tags":{"amenity":"bank","contact:phone":"010520471","name":"Uthog Badijye Tatha Rid Sahakari Sastha","name:ne":"धादिंग उधोग बाणीज्य ॠण तथा सहकारी संस्था","nrb_class":"co-operative","opening_hours":"Su-Fr 10:00-17:00","source":"2cpokhara"},"relations":[],"meta":{}},"geometry":{"type":"Point","coordinates":[84.898999,27.9098055]}},{"type":"Feature","id":"node/5170943058","properties":{"type":"node","id":5170943058,"tags":{"amenity":"bank","name":"Shree Karmachari Kalyaan Bahuudessiye Sahakari Sastha Ltd","name:ne":"श्री कर्मचारी कल्याण बहुउद्देश्यीय सहकारी संस्था लि .","nrb_class":"co-operative","source":"2cpokhara"},"relations":[],"meta":{}},"geometry":{"type":"Point","coordinates":[84.8928413,27.9117165]}},{"type":"Feature","id":"node/5181157702","properties":{"type":"node","id":5181157702,"tags":{"amenity":"atm","brand":"Everest Bank Limited","opening_hours":"24/7","operator":"Everest Bank"},"relations":[],"meta":{}},"geometry":{"type":"Point","coordinates":[84.8930506,27.91115]}},{"type":"Feature","id":"node/5181168657","properties":{"type":"node","id":5181168657,"tags":{"amenity":"atm","brand":"Civil Bank Ltd"},"relations":[],"meta":{}},"geometry":{"type":"Point","coordinates":[84.8882528,27.911409]}},{"type":"Feature","id":"node/5181639417","properties":{"type":"node","id":5181639417,"tags":{"amenity":"bank","name":"Shree Surya Daya Krishi Sahakari Sastha"},"relations":[],"meta":{}},"geometry":{"type":"Point","coordinates":[84.8988609,27.9192753]}},{"type":"Feature","id":"node/5285503525","properties":{"type":"node","id":5285503525,"tags":{"amenity":"bank","atm":"yes","brand":"Nabil Bank Ltd","name":"Investment Bank Ltd"},"relations":[],"meta":{}},"geometry":{"type":"Point","coordinates":[84.8885089,27.9117906]}},{"type":"Feature","id":"node/5285508058","properties":{"type":"node","id":5285508058,"tags":{"amenity":"bank","atm":"yes","brand":"IME","name":"Kalaa Inteshan","phone":"010521343"},"relations":[],"meta":{}},"geometry":{"type":"Point","coordinates":[84.9008457,27.9086393]}},{"type":"Feature","id":"node/5292842192","properties":{"type":"node","id":5292842192,"tags":{"amenity":"atm","brand":"Parbu Bank Ltd"},"relations":[],"meta":{}},"geometry":{"type":"Point","coordinates":[84.8930988,27.9113337]}},{"type":"Feature","id":"node/5292842193","properties":{"type":"node","id":5292842193,"tags":{"amenity":"bank","atm":"yes","name":"Parbu Bank Ltd","opening_hours":"05:00-05:00,"},"relations":[],"meta":{}},"geometry":{"type":"Point","coordinates":[84.8930928,27.9113633]}},{"type":"Feature","id":"node/5295239212","properties":{"type":"node","id":5295239212,"tags":{"amenity":"bank","atm":"yes","brand":"Nepal Rasta Bank","name":"NIC Bank Ltd","name:ne":"न्नइसी बैंक लिमिट","opening_hours":"10:00-05:00,"},"relations":[],"meta":{}},"geometry":{"type":"Point","coordinates":[84.893532,27.911246]}}],"createdOn":1519534201018}